NORAD_CAT_ID,OBJECT_NAME,OBJECT_TYPE,EPOCH,MEAN_MOTION,ECCENTRICITY,INCLINATION,RA_OF_ASC_NODE,ARG_OF_PERICENTER,MEAN_ANOMALY,BSTAR,MEAN_MOTION_DOT,MEAN_MOTION_DDOT,TLE_LINE0,TLE_LINE1,TLE_LINE2,SEMIMAJOR_AXIS,PERIOD,APOGEE,PERIGEE,DECAYED
50812.0,STARLINK-3338,PAYLOAD,2024-07-26 10:40:29,15.08843296,0.0001765,53.2173,293.4284,112.2159,247.902,0.00021185,3.085e-05,0.0,0 STARLINK-3338,1 50812U 22001K   24208.44478599  .00003085  00000-0  21185-3 0  9993,2 50812  53.2173 293.4284 0001765 112.2159 247.9020 15.08843296141287,6917.87,95.437,540.956,538.514,0.0
50812.0,STARLINK-3338,PAYLOAD,2024-07-26 15:26:38,15.08850452,0.0001777,53.217,292.5344,111.697,248.4211,0.00019291,2.784e-05,0.0,0 STARLINK-3338,1 50812U 22001K   24208.64350124  .00002784  00000-0  19291-3 0  9998,2 50812  53.2170 292.5344 0001777 111.6970 248.4211 15.08850452141312,6917.848,95.437,540.943,538.484,0.0
50812.0,STARLINK-3338,PAYLOAD,2024-07-27 04:09:43,15.08844194,0.0001517,53.2164,290.1548,106.8307,253.2852,0.00012756,1.743e-05,0.0,0 STARLINK-3338,1 50812U 22001K   24209.17342285  .00001743  00000-0  12756-3 0  9999,2 50812  53.2164 290.1548 0001517 106.8307 253.2852 15.08844194141396,6917.868,95.437,540.782,538.683,0.0
50812.0,STARLINK-3338,PAYLOAD,2024-07-27 10:31:16,15.08838414,0.0001333,53.2161,288.9675,99.8144,260.2999,3.5856e-05,2.83e-06,0.0,0 STARLINK-3338,1 50812U 22001K   24209.43838703  .00000283  00000-0  35856-4 0  9998,2 50812  53.2161 288.9675 0001333  99.8144 260.2999 15.08838414142686,6917.885,95.438,540.672,538.828,0.0
50812.0,STARLINK-3338,PAYLOAD,2024-07-27 15:17:26,15.08834366,0.0001453,53.2157,288.0759,88.7759,271.34,-6.9079e-05,-1.387e-05,0.0,0 STARLINK-3338,1 50812U 22001K   24209.63710966 -.00001387  00000-0 -69079-4 0  9992,2 50812  53.2157 288.0759 0001453  88.7759 271.3400 15.08834366141464,6917.898,95.438,540.768,538.757,0.0
50812.0,STARLINK-3338,PAYLOAD,2024-07-28 11:57:26,15.08841491,0.0001237,53.2161,284.2112,82.2346,277.8787,0.00011794,1.59e-05,0.0,0 STARLINK-3338,1 50812U 22001K   24210.49822750  .00001590  00000-0  11794-3 0  9997,2 50812  53.2161 284.2112 0001237  82.2346 277.8787 15.08841491142840,6917.876,95.437,540.597,538.885,0.0
50812.0,STARLINK-3338,PAYLOAD,2024-07-28 15:08:13,15.08844301,0.000126,53.2162,283.616,82.0532,278.0603,0.00013606,1.878e-05,0.0,0 STARLINK-3338,1 50812U 22001K   24210.63070604  .00001878  00000-0  13606-3 0  9999,2 50812  53.2162 283.6160 0001260  82.0532 278.0603 15.08844301141615,6917.867,95.437,540.604,538.861,0.0
50812.0,STARLINK-3338,PAYLOAD,2024-07-29 11:48:14,15.08839091,0.0001234,53.2158,279.7499,73.6937,286.4191,0.0001946,2.81e-05,0.0,0 STARLINK-3338,1 50812U 22001K   24211.49183020  .00002810  00000-0  19460-3 0  9992,2 50812  53.2158 279.7499 0001234  73.6937 286.4191 15.08839091142994,6917.883,95.438,540.602,538.895,0.0
50812.0,STARLINK-3338,PAYLOAD,2024-07-29 13:23:37,15.0883953,0.000124,53.2157,279.4526,73.2294,286.8834,0.0001931,2.787e-05,0.0,0 STARLINK-3338,1 50812U 22001K   24211.55807020  .00002787  00000-0  19310-3 0  9999,2 50812  53.2157 279.4526 0001240  73.2294 286.8834 15.08839530141759,6917.882,95.438,540.605,538.889,0.0
50812.0,STARLINK-3338,PAYLOAD,2024-07-29 21:20:32,15.08848161,0.0001284,53.2159,277.9662,73.1446,286.9687,0.00029059,4.341e-05,0.0,0 STARLINK-3338,1 50812U 22001K   24211.88926573  .00004341  00000-0  29059-3 0  9999,2 50812  53.2159 277.9662 0001284  73.1446 286.9687 15.08848161141804,6917.855,95.437,540.609,538.832,0.0
50812.0,STARLINK-3338,PAYLOAD,2024-07-30 10:03:38,15.08837403,0.000175,53.2174,275.5937,101.8755,258.2434,3.7165e-05,3.03e-06,0.0,0 STARLINK-3338,1 50812U 22001K   24212.41919563  .00000303  00000-0  37165-4 0  9992,2 50812  53.2174 275.5937 0001750 101.8755 258.2434 15.08837403143137,6917.888,95.438,540.964,538.543,0.0
50812.0,STARLINK-3338,PAYLOAD,2024-07-30 21:11:19,15.08846561,0.0001512,53.2165,273.5055,82.0754,278.0409,0.00014464,2.015e-05,0.0,0 STARLINK-3338,1 50812U 22001K   24212.88286766  .00002015  00000-0  14464-3 0  9993,2 50812  53.2165 273.5055 0001512  82.0754 278.0409 15.08846561143206,6917.86,95.437,540.771,538.679,0.0
50812.0,STARLINK-3338,PAYLOAD,2024-07-31 11:29:48,15.08831975,0.0001338,53.2156,270.8289,86.502,273.6125,-4.1295e-05,-9.45e-06,0.0,0 STARLINK-3338,1 50812U 22001K   24213.47903655 -.00000945  00000-0 -41295-4 0  9997,2 50812  53.2156 270.8289 0001338  86.5020 273.6125 15.08831975143294,6917.905,95.438,540.696,538.844,0.0
50812.0,STARLINK-3338,PAYLOAD,2024-07-31 21:02:07,15.08841921,0.0001542,53.2167,269.0469,86.3703,273.7466,0.00016003,2.26e-05,0.0,0 STARLINK-3338,1 50812U 22001K   24213.87647534  .00002260  00000-0  16003-3 0  9990,2 50812  53.2167 269.0469 0001542  86.3703 273.7466 15.08841921142109,6917.875,95.437,540.806,538.673,0.0
50812.0,STARLINK-3338,PAYLOAD,2024-08-01 11:20:35,15.08852017,0.0001318,53.2149,266.369,101.5565,258.5575,0.000426,6.501e-05,0.0,0 STARLINK-3338,1 50812U 22001K   24214.47263061  .00006501  00000-0  42600-3 0  9990,2 50812  53.2149 266.3690 0001318 101.5565 258.5575 15.08852017142191,6917.844,95.437,540.62,538.797,0.0
50812.0,STARLINK-3338,PAYLOAD,2024-08-01 20:52:53,15.08853529,0.0001311,53.2147,264.584,89.4417,270.6726,0.00037171,5.635e-05,0.0,0 STARLINK-3338,1 50812U 22001K   24214.87006875  .00005635  00000-0  37171-3 0  9996,2 50812  53.2147 264.5840 0001311  89.4417 270.6726 15.08853529142258,6917.839,95.437,540.611,538.797,0.0
50812.0,STARLINK-3338,PAYLOAD,2024-08-02 12:46:45,15.08841473,0.0001662,53.2158,261.6087,97.3752,262.7429,0.00010004,1.305e-05,0.0,0 STARLINK-3338,1 50812U 22001K   24215.53247413  .00001305  00000-0  10004-3 0  9991,2 50812  53.2158 261.6087 0001662  97.3752 262.7429 15.08841473143607,6917.876,95.437,540.891,538.591,0.0
50812.0,STARLINK-3338,PAYLOAD,2024-08-02 20:43:41,15.08849256,0.0001534,53.2151,260.124,89.6343,270.4825,0.00023367,3.434e-05,0.0,0 STARLINK-3338,1 50812U 22001K   24215.86367074  .00003434  00000-0  23367-3 0  9994,2 50812  53.2151 260.1240 0001534  89.6343 270.4825 15.08849256142403,6917.852,95.437,540.778,538.656,0.0
50812.0,STARLINK-3338,PAYLOAD,2024-08-03 12:37:32,15.08847857,0.0001661,53.2165,257.15,92.8379,267.2803,0.00015922,2.247e-05,0.0,0 STARLINK-3338,1 50812U 22001K   24216.52607042  .00002247  00000-0  15922-3 0  9999,2 50812  53.2165 257.1500 0001661  92.8379 267.2803 15.08847857142505,6917.856,95.437,540.87,538.572,0.0
50812.0,STARLINK-3338,PAYLOAD,2024-08-04 09:17:33,15.08844831,0.0001739,53.2163,253.2842,92.5369,267.5822,0.00017277,2.463e-05,0.0,0 STARLINK-3338,1 50812U 22001K   24217.38719083  .00002463  00000-0  17277-3 0  9998,2 50812  53.2163 253.2842 0001739  92.5369 267.5822 15.08844831143886,6917.866,95.437,540.934,538.528,0.0
50812.0,STARLINK-3338,PAYLOAD,2024-08-05 09:08:20,15.0883437,0.0001531,53.2163,248.8229,92.4402,267.6765,2.9935e-05,1.88e-06,0.0,0 STARLINK-3338,1 50812U 22001K   24218.38079781  .00000188  00000-0  29935-4 0  9990,2 50812  53.2163 248.8229 0001531  92.4402 267.6765 15.08834370144034,6917.898,95.438,540.822,538.703,0.0
50812.0,STARLINK-3338,PAYLOAD,2024-08-05 18:40:39,15.08837623,0.0001484,53.2166,247.039,90.5361,269.5801,6.9688e-07,-2.77e-06,0.0,0 STARLINK-3338,1 50812U 22001K   24218.77823670 -.00000277  00000-0  69688-6 0  9998,2 50812  53.2166 247.0390 0001484  90.5361 269.5801 15.08837623142840,6917.888,95.438,540.779,538.726,0.0
50812.0,STARLINK-3338,PAYLOAD,2024-08-06 10:34:31,15.08835211,0.0001441,53.2169,244.0676,95.9899,264.1257,2.4554e-05,1.03e-06,0.0,0 STARLINK-3338,1 50812U 22001K   24219.44064016  .00000103  00000-0  24554-4 0  9992,2 50812  53.2169 244.0676 0001441  95.9899 264.1257 15.08835211144192,6917.895,95.438,540.757,538.763,0.0
50812.0,STARLINK-3338,PAYLOAD,2024-08-06 18:31:26,15.08838169,0.0001452,53.2171,242.581,95.8908,264.2249,4.8677e-05,4.87e-06,0.0,0 STARLINK-3338,1 50812U 22001K   24219.77183839  .00000487  00000-0  48677-4 0  9990,2 50812  53.2171 242.5810 0001452  95.8908 264.2249 15.08838169142993,6917.886,95.438,540.755,538.747,0.0
50812.0,STARLINK-3338,PAYLOAD,2024-08-07 05:39:08,15.08837176,0.000135,53.217,240.4989,93.7277,266.387,0.00016547,2.346e-05,0.0,0 STARLINK-3338,1 50812U 22001K   24220.23551682  .00002346  00000-0  16547-3 0  9994,2 50812  53.2170 240.4989 0001350  93.7277 266.3870 15.08837176143068,6917.889,95.438,540.688,538.82,0.0
50812.0,STARLINK-3338,PAYLOAD,2024-08-08 08:40:41,15.08847269,0.0001293,53.2161,235.4428,85.1974,274.9166,0.00014207,1.974e-05,0.0,0 STARLINK-3338,1 50812U 22001K   24221.36159325  .00001974  00000-0  14207-3 0  9994,2 50812  53.2161 235.4428 0001293  85.1974 274.9166 15.08847269143231,6917.858,95.437,540.618,538.829,0.0
50812.0,STARLINK-3338,PAYLOAD,2024-08-09 05:20:42,15.08843433,0.0001453,53.2165,231.5766,79.6404,280.4752,4.2921e-05,3.95e-06,0.0,0 STARLINK-3338,1 50812U 22001K   24222.22271698  .00000395  00000-0  42921-4 0  9999,2 50812  53.2165 231.5766 0001453  79.6404 280.4752 15.08843433144616,6917.87,95.437,540.74,538.73,0.0
50812.0,STARLINK-3338,PAYLOAD,2024-08-09 06:56:05,15.08843038,0.0001318,53.216,231.2795,89.5104,270.6039,4.2086e-05,3.82e-06,0.0,0 STARLINK-3338,1 50812U 22001K   24222.28895615  .00000382  00000-0  42086-4 0  9994,2 50812  53.2160 231.2795 0001318  89.5104 270.6039 15.08843038143379,6917.871,95.437,540.648,538.824,0.0
50812.0,STARLINK-3338,PAYLOAD,2024-08-09 18:03:47,15.08849778,0.0001322,53.2161,229.1968,90.6381,269.4762,7.6402e-05,9.29e-06,0.0,0 STARLINK-3338,1 50812U 22001K   24222.75262900  .00000929  00000-0  76402-4 0  9997,2 50812  53.2161 229.1968 0001322  90.6381 269.4762 15.08849778144695,6917.851,95.437,540.63,538.801,0.0
50812.0,STARLINK-3338,PAYLOAD,2024-08-10 06:46:52,15.08846705,0.0001588,53.2173,226.8175,101.53,258.587,2.9245e-05,1.78e-06,0.0,0 STARLINK-3338,1 50812U 22001K   24223.28255083  .00000178  00000-0  29245-4 0  9999,2 50812  53.2173 226.8175 0001588 101.5300 258.5870 15.08846705143526,6917.86,95.437,540.823,538.626,0.0
